API VERSION: 1.2
API SOURCE: NASA/JPL Horizons API



*******************************************************************************
Ephemeris / API_USER Mon Oct 30 14:06:24 2023 Pasadena, USA      / Horizons    
*******************************************************************************
Target body name: Moon (301)                      {source: DE441}
Center body name: Earth (399)                     {source: DE441}
Center-site name: GEOCENTRIC
*******************************************************************************
Start time      : A.D. 2064-Jan-01 00:00:00.0000 UT      
Stop  time      : A.D. 2065-Jan-01 00:00:00.0000 UT      
Step-size       : 60 minutes
*******************************************************************************
Target pole/equ : MOON_ME                         {East-longitude positive}
Target radii    : 1737.4, 1737.4, 1737.4 km       {Equator_a, b, pole_c}       
Center geodetic : 0.0, 0.0, -6378.137             {E-lon(deg),Lat(deg),Alt(km)}
Center cylindric: 0.0, 0.0, 0.0                   {E-lon(deg),Dxy(km),Dz(km)}
Center pole/equ : ITRF93                          {East-longitude positive}
Center radii    : 6378.137, 6378.137, 6356.752 km {Equator_a, b, pole_c}       
Target primary  : Earth
Vis. interferer : MOON (R_eq= 1737.400) km        {source: DE441}
Rel. light bend : Sun                             {source: DE441}
Rel. lght bnd GM: 1.3271E+11 km^3/s^2                                          
Atmos refraction: NO (AIRLESS)
RA format       : HMS
Time format     : CAL 
Calendar mode   : Mixed Julian/Gregorian
EOP file        : eop.231027.p240119                                           
EOP coverage    : DATA-BASED 1962-JAN-20 TO 2023-OCT-27. PREDICTS-> 2024-JAN-18
Units conversion: 1 au= 149597870.700 km, c= 299792.458 km/s, 1 day= 86400.0 s 
Table cut-offs 1: Elevation (-90.0deg=NO ),Airmass (>38.000=NO), Daylight (NO )
Table cut-offs 2: Solar elongation (  0.0,180.0=NO ),Local Hour Angle( 0.0=NO )
Table cut-offs 3: RA/DEC angular rate (     0.0=NO )                           
Table format    : Comma Separated Values (spreadsheet)
***********************************************************************************************************************************************
 Date__(UT)__HR:MN, , , R.A._(ICRF), DEC__(ICRF),      Illu%,  ObsSub-LON, ObsSub-LAT,  SunSub-LON, SunSub-LAT,    NP.ang,  NP.dist,     S-T-O,
***********************************************************************************************************************************************
$$SOE
 2064-Nov-04 03:00, , , 10 28 55.19, +07 08 11.4,   29.21759,  353.999623,   2.869563,  239.480936,  -1.514687,   20.2901,  968.158,  114.5578,
 2064-Nov-04 04:00, , , 10 31 03.56, +06 52 36.3,   28.78424,  354.039321,   2.930227,  238.973065,  -1.514378,   20.3822,  968.662,  115.1050,
 2064-Nov-04 05:00, , , 10 33 11.95, +06 36 58.0,   28.35226,  354.079795,   2.990648,  238.465184,  -1.514070,   20.4726,  969.164,  115.6528,
 2064-Nov-04 06:00, , , 10 35 20.35, +06 21 16.5,   27.92173,  354.121044,   3.050818,  237.957293,  -1.513764,   20.5612,  969.663,  116.2013,
 2064-Nov-04 07:00, , , 10 37 28.78, +06 05 31.9,   27.49267,  354.163068,   3.110728,  237.449392,  -1.513460,   20.6480,  970.158,  116.7506,
 2064-Nov-04 08:00, , , 10 39 37.24, +05 49 44.2,   27.06515,  354.205866,   3.170371,  236.941481,  -1.513158,   20.7331,  970.651,  117.3005,
 2064-Nov-04 09:00, , , 10 41 45.73, +05 33 53.7,   26.63922,  354.249438,   3.229740,  236.433560,  -1.512858,   20.8163,  971.140,  117.8511,
 2064-Nov-04 10:00, , , 10 43 54.26, +05 18 00.3,   26.21491,  354.293783,   3.288825,  235.925628,  -1.512561,   20.8978,  971.627,  118.4024,
 2064-Nov-04 11:00, , , 10 46 02.83, +05 02 04.1,   25.79229,  354.338900,   3.347620,  235.417687,  -1.512265,   20.9774,  972.110,  118.9544,
 2064-Nov-04 12:00, , , 10 48 11.44, +04 46 05.2,   25.37140,  354.384787,   3.406116,  234.909735,  -1.511971,   21.0553,  972.589,  119.5070,
 2064-Nov-04 13:00, , , 10 50 20.11, +04 30 03.8,   24.95229,  354.431444,   3.464306,  234.401774,  -1.511679,   21.1313,  973.066,  120.0603,
 2064-Nov-04 14:00, , , 10 52 28.83, +04 13 59.8,   24.53502,  354.478869,   3.522181,  233.893803,  -1.511390,   21.2055,  973.538,  120.6143,
 2064-Nov-04 15:00, , , 10 54 37.61, +03 57 53.3,   24.11963,  354.527060,   3.579733,  233.385822,  -1.511102,   21.2779,  974.007,  121.1690,
 2064-Nov-04 16:00, , , 10 56 46.46, +03 41 44.5,   23.70617,  354.576016,   3.636955,  232.877831,  -1.510817,   21.3484,  974.473,  121.7243,
 2064-Nov-04 17:00, , , 10 58 55.38, +03 25 33.5,   23.29469,  354.625734,   3.693839,  232.369830,  -1.510533,   21.4170,  974.934,  122.2803,
 2064-Nov-04 18:00, , , 11 01 04.37, +03 09 20.3,   22.88525,  354.676213,   3.750376,  231.861820,  -1.510252,   21.4837,  975.392,  122.8369,
 2064-Nov-04 19:00, , , 11 03 13.44, +02 53 05.0,   22.47790,  354.727450,   3.806558,  231.353799,  -1.509973,   21.5486,  975.846,  123.3942,
 2064-Nov-04 20:00, , , 11 05 22.60, +02 36 47.6,   22.07269,  354.779442,   3.862377,  230.845770,  -1.509695,   21.6116,  976.296,  123.9522,
 2064-Nov-04 21:00, , , 11 07 31.84, +02 20 28.4,   21.66966,  354.832187,   3.917826,  230.337731,  -1.509420,   21.6727,  976.742,  124.5108,
 2064-Nov-04 22:00, , , 11 09 41.18, +02 04 07.4,   21.26888,  354.885682,   3.972897,  229.829682,  -1.509148,   21.7318,  977.184,  125.0700,
 2064-Nov-04 23:00, , , 11 11 50.62, +01 47 44.6,   20.87038,  354.939924,   4.027580,  229.321624,  -1.508877,   21.7890,  977.621,  125.6298,
 2064-Nov-05 00:00, , , 11 14 00.16, +01 31 20.2,   20.47423,  354.994909,   4.081869,  228.813556,  -1.508608,   21.8443,  978.055,  126.1903,
 2064-Nov-05 01:00, , , 11 16 09.81, +01 14 54.3,   20.08047,  355.050635,   4.135755,  228.305479,  -1.508341,   21.8976,  978.484,  126.7513,
 2064-Nov-05 02:00, , , 11 18 19.57, +00 58 26.9,   19.68916,  355.107098,   4.189230,  227.797393,  -1.508077,   21.9490,  978.908,  127.3130,
 2064-Nov-05 03:00, , , 11 20 29.45, +00 41 58.1,   19.30034,  355.164293,   4.242286,  227.289298,  -1.507815,   21.9984,  979.328,  127.8753,
 2064-Nov-05 04:00, , , 11 22 39.46, +00 25 28.1,   18.91407,  355.222217,   4.294916,  226.781193,  -1.507555,   22.0458,  979.744,  128.4382,
 2064-Nov-05 05:00, , , 11 24 49.59, +00 08 56.9,   18.53041,  355.280866,   4.347111,  226.273080,  -1.507296,   22.0912,  980.155,  129.0017,
 2064-Nov-05 06:00, , , 11 26 59.86, -00 07 35.3,   18.14939,  355.340235,   4.398863,  225.764957,  -1.507041,   22.1346,  980.561,  129.5658,
 2064-Nov-05 07:00, , , 11 29 10.26, -00 24 08.5,   17.77107,  355.400320,   4.450164,  225.256826,  -1.506787,   22.1760,  980.963,  130.1304,
 2064-Nov-05 08:00, , , 11 31 20.81, -00 40 42.6,   17.39551,  355.461115,   4.501007,  224.748685,  -1.506535,   22.2154,  981.359,  130.6957,
 2064-Nov-05 09:00, , , 11 33 31.51, -00 57 17.5,   17.02276,  355.522617,   4.551383,  224.240536,  -1.506286,   22.2527,  981.751,  131.2614,
 2064-Nov-05 10:00, , , 11 35 42.36, -01 13 53.0,   16.65286,  355.584820,   4.601285,  223.732378,  -1.506038,   22.2879,  982.138,  131.8278,
 2064-Nov-05 11:00, , , 11 37 53.37, -01 30 29.1,   16.28587,  355.647718,   4.650704,  223.224211,  -1.505793,   22.3211,  982.520,  132.3947,
 2064-Nov-05 12:00, , , 11 40 04.54, -01 47 05.7,   15.92184,  355.711306,   4.699634,  222.716036,  -1.505550,   22.3522,  982.896,  132.9621,
 2064-Nov-05 13:00, , , 11 42 15.88, -02 03 42.6,   15.56081,  355.775578,   4.748065,  222.207852,  -1.505309,   22.3812,  983.268,  133.5300,
 2064-Nov-05 14:00, , , 11 44 27.39, -02 20 19.9,   15.20285,  355.840528,   4.795991,  221.699660,  -1.505070,   22.4081,  983.634,  134.0985,
 2064-Nov-05 15:00, , , 11 46 39.08, -02 36 57.2,   14.84799,  355.906151,   4.843403,  221.191460,  -1.504834,   22.4329,  983.995,  134.6675,
 2064-Nov-05 16:00, , , 11 48 50.95, -02 53 34.7,   14.49630,  355.972439,   4.890295,  220.683251,  -1.504599,   22.4555,  984.350,  135.2369,
 2064-Nov-05 17:00, , , 11 51 03.01, -03 10 12.1,   14.14782,  356.039387,   4.936657,  220.175034,  -1.504367,   22.4760,  984.700,  135.8069,
 2064-Nov-05 18:00, , , 11 53 15.27, -03 26 49.3,   13.80260,  356.106987,   4.982484,  219.666808,  -1.504137,   22.4943,  985.045,  136.3773,
 2064-Nov-05 19:00, , , 11 55 27.72, -03 43 26.3,   13.46069,  356.175233,   5.027766,  219.158575,  -1.503908,   22.5105,  985.383,  136.9482,
 2064-Nov-05 20:00, , , 11 57 40.37, -04 00 02.9,   13.12214,  356.244117,   5.072498,  218.650334,  -1.503682,   22.5244,  985.717,  137.5196,
 2064-Nov-05 21:00, , , 11 59 53.23, -04 16 39.0,   12.78700,  356.313633,   5.116670,  218.142085,  -1.503459,   22.5362,  986.044,  138.0914,
 2064-Nov-05 22:00, , , 12 02 06.31, -04 33 14.5,   12.45531,  356.383772,   5.160276,  217.633828,  -1.503237,   22.5458,  986.366,  138.6636,
 2064-Nov-05 23:00, , , 12 04 19.60, -04 49 49.4,   12.12714,  356.454526,   5.203309,  217.125563,  -1.503017,   22.5531,  986.682,  139.2363,
 2064-Nov-06 00:00, , , 12 06 33.11, -05 06 23.4,   11.80252,  356.525889,   5.245762,  216.617291,  -1.502800,   22.5582,  986.992,  139.8093,
 2064-Nov-06 01:00, , , 12 08 46.85, -05 22 56.5,   11.48150,  356.597852,   5.287626,  216.109011,  -1.502585,   22.5610,  987.296,  140.3828,
 2064-Nov-06 02:00, , , 12 11 00.82, -05 39 28.6,   11.16413,  356.670407,   5.328895,  215.600724,  -1.502371,   22.5616,  987.594,  140.9566,
 2064-Nov-06 03:00, , , 12 13 15.02, -05 55 59.5,   10.85047,  356.743544,   5.369562,  215.092430,  -1.502160,   22.5599,  987.886,  141.5308,
 2064-Nov-06 04:00, , , 12 15 29.47, -06 12 29.1,   10.54054,  356.817256,   5.409620,  214.584128,  -1.501951,   22.5558,  988.172,  142.1053,
 2064-Nov-06 05:00, , , 12 17 44.16, -06 28 57.4,   10.23441,  356.891533,   5.449062,  214.075819,  -1.501744,   22.5495,  988.452,  142.6802,
